ONEWEB-0340             
1 49206U 21083W   25060.57538452  .00000065  00000+0  13095-3 0  9998
2 49206  87.9049  69.4306 0001744  89.5985 270.5347 13.18685149168973
ONEWEB-0341             
1 49207U 21083X   25060.58328012  .00000031  00000+0  46281-4 0  9996
2 49207  87.9048  69.4398 0001884  70.9381 289.1955 13.18683046167708
ONEWEB-0342             
1 49208U 21083Y   25060.40123061  .00000117  00000+0  25543-3 0  9997
2 49208  87.9308   8.5300 0001976  80.0560 280.0796 13.20770821174373
ONEWEB-0343             
1 49209U 21083Z   25060.57854584  .00000049  00000+0  90340-4 0  9999
2 49209  87.9042  69.4328 0002201  74.3651 285.7723 13.18684302169049
ONEWEB-0344             
1 49210U 21083AA  25061.02043952 -.00003388  00000+0 -93240-2 0  9992
2 49210  87.8903  54.1134 0002070  73.1631 286.9725 13.13412179170213
ONEWEB-0345             
1 49211U 21083AB  25061.03799778 -.00000157  00000+0 -46462-3 0  9994
2 49211  87.8894  54.0787 0001623  71.5279 288.6027 13.13364721170223
ONEWEB-0346             
1 49212U 21083AC  25060.51215918  .00000018  00000+0  12459-4 0  9990
2 49212  87.9049  69.4633 0001500  98.4528 261.6774 13.18685169167689
ONEWEB-0348             
1 49213U 21083AD  25060.84627796  .00000072  00000+0  14563-3 0  9995
2 49213  87.9317   8.4386 0001248  69.3925 290.7342 13.20770712175767
